[{"OBJECT_NAME":"FLOCK 4G-24","OBJECT_ID":"2025-009AE","EPOCH":"2026-03-09T17:24:07.838208","MEAN_MOTION":15.27784978,"ECCENTRICITY":0.0001802,"INCLINATION":97.4061,"RA_OF_ASC_NODE":151.514,"ARG_OF_PERICENTER":280.2808,"MEAN_ANOMALY":79.8228,"EPHEMERIS_TYPE":0,"CLASSIFICATION_TYPE":"U","NORAD_CAT_ID":62637,"ELEMENT_SET_NO":999,"REV_AT_EPOCH":6373,"BSTAR":0.00038996067,"MEAN_MOTION_DOT":0.00010513,"MEAN_MOTION_DDOT":0},{"OBJECT_NAME":"STARLINK-36539","OBJECT_ID":"2026-008B","EPOCH":"2026-03-09T09:46:18.249888","MEAN_MOTION":15.27589101,"ECCENTRICITY":0.00040482,"INCLINATION":43.0027,"RA_OF_ASC_NODE":207.2864,"ARG_OF_PERICENTER":291.88,"MEAN_ANOMALY":68.1621,"EPHEMERIS_TYPE":0,"CLASSIFICATION_TYPE":"U","NORAD_CAT_ID":67446,"ELEMENT_SET_NO":999,"REV_AT_EPOCH":952,"BSTAR":0.00096121986,"MEAN_MOTION_DOT":0.00026294,"MEAN_MOTION_DDOT":0}]
